{"type": "FeatureCollection", "features": [ {"type": "Feature", "properties": {"norad_id": 34845, "name": "COSMOS 2251 DEB", "group": "cosmos-2251-debris", "lat": 42.86511879180227, "lon": -68.68757712354517, "alt_km": 749.243268023788, "timestamp": "2025-12-24T07:45:06.594129+00:00", "meta": {"OBJECT_NAME": "COSMOS 2251 DEB", "OBJECT_ID": "1993-036ABP", "EPOCH": "2025-12-19T17:31:51.884832", "MEAN_MOTION": 14.45872035, "ECCENTRICITY": 0.00225932, "INCLINATION": 74.0244, "RA_OF_ASC_NODE": 135.3011, "ARG_OF_PERICENTER": 295.1391, "MEAN_ANOMALY": 64.7423, "EPHEMERIS_TYPE": 0, "CLASSIFICATION_TYPE": "U", "NORAD_CAT_ID": 34845, "ELEMENT_SET_NO": 999, "REV_AT_EPOCH": 87567, "BSTAR": 0.00020260782, "MEAN_MOTION_DOT": 6.95e-06, "MEAN_MOTION_DDOT": 0}, "tle": {"line1": "1 34845U 93036ABP 25353.73046163  .00000695  00000+0  20261-3 0  9996", "line2": "2 34845  74.0244 135.3011 0022593 295.1391  64.7423 14.45872035875670"}}, "geometry": {"type": "Point", "coordinates": [-68.68757712354517, 42.86511879180227]}}, {"type": "Feature", "properties": {"norad_id": 34846, "name": "COSMOS 2251 DEB", "group": "cosmos-2251-debris", "lat": 45.94774852046475, "lon": 42.895943445648356, "alt_km": 748.7521901074251, "timestamp": "2025-12-24T07:45:06.594139+00:00", "meta": {"OBJECT_NAME": "COSMOS 2251 DEB", "OBJECT_ID": "1993-036ABQ", "EPOCH": "2025-12-23T22:51:00.251136", "MEAN_MOTION": 14.47273282, "ECCENTRICITY": 0.00262325, "INCLINATION": 74.0298, "RA_OF_ASC_NODE": 240.8071, "ARG_OF_PERICENTER": 305.7928, "MEAN_ANOMALY": 54.0792, "EPHEMERIS_TYPE": 0, "CLASSIFICATION_TYPE": "U", "NORAD_CAT_ID": 34846, "ELEMENT_SET_NO": 999, "REV_AT_EPOCH": 87566, "BSTAR": 0.00073253256, "MEAN_MOTION_DOT": 2.664e-05, "MEAN_MOTION_DDOT": 0}, "tle": {"line1": "1 34846U 93036ABQ 25357.95208624  .00002664  00000+0  73253-3 0  9994", "line2": "2 34846  74.0298 240.8071 0026232 305.7928  54.0792 14.47273282875667"}}, "geometry": {"type": "Point", "coordinates": [42.895943445648356, 45.94774852046475]}}, {"type": "Feature", "properties": {"norad_id": 34852, "name": "COSMOS 2251 DEB", "group": "cosmos-2251-debris", "lat": 46.23026597737118, "lon": 44.27988770639759, "alt_km": 774.1490207296383, "timestamp": "2025-12-24T07:45:06.594152+00:00", "meta": {"OBJECT_NAME": "COSMOS 2251 DEB", "OBJECT_ID": "1993-036ABW", "EPOCH": "2025-12-22T10:01:54.526080", "MEAN_MOTION": 14.37012127, "ECCENTRICITY": 0.00166159, "INCLINATION": 74.0324, "RA_OF_ASC_NODE": 245.1729, "ARG_OF_PERICENTER": 346.342, "MEAN_ANOMALY": 13.7281, "EPHEMERIS_TYPE": 0, "CLASSIFICATION_TYPE": "U", "NORAD_CAT_ID": 34852, "ELEMENT_SET_NO": 999, "REV_AT_EPOCH": 87673, "BSTAR": 0.00010888477, "MEAN_MOTION_DOT": 2.97e-06, "MEAN_MOTION_DDOT": 0}, "tle": {"line1": "1 34852U 93036ABW 25356.41799220  .00000297  00000+0  10888-3 0  9993", "line2": "2 34852  74.0324 245.1729 0016615 346.3420  13.7281 14.37012127876736"}}, "geometry": {"type": "Point", "coordinates": [44.27988770639759, 46.23026597737118]}}, {"type": "Feature", "properties": {"norad_id": 34854, "name": "COSMOS 2251 DEB", "group": "cosmos-2251-debris", "lat": -62.66811205383077, "lon": -10.475710903673033, "alt_km": 600.2243582252086, "timestamp": "2025-12-24T07:45:06.594163+00:00", "meta": {"OBJECT_NAME": "COSMOS 2251 DEB", "OBJECT_ID": "1993-036ABY", "EPOCH": "2025-12-23T02:59:29.308992", "MEAN_MOTION": 14.76722468, "ECCENTRICITY": 0.00659618, "INCLINATION": 74.0297, "RA_OF_ASC_NODE": 138.2247, "ARG_OF_PERICENTER": 247.8354, "MEAN_ANOMALY": 111.5813, "EPHEMERIS_TYPE": 0, "CLASSIFICATION_TYPE": "U", "NORAD_CAT_ID": 34854, "ELEMENT_SET_NO": 999, "REV_AT_EPOCH": 72035, "BSTAR": 0.00083387478, "MEAN_MOTION_DOT": 6.022e-05, "MEAN_MOTION_DDOT": 0}, "tle": {"line1": "1 34854U 93036ABY 25357.12464478  .00006022  00000+0  83387-3 0  9994", "line2": "2 34854  74.0297 138.2247 0065961 247.8354 111.5813 14.76722468720356"}}, "geometry": {"type": "Point", "coordinates": [-10.475710903673033, -62.66811205383077]}}, {"type": "Feature", "properties": {"norad_id": 34856, "name": "COSMOS 2251 DEB", "group": "cosmos-2251-debris", "lat": 58.797956874538094, "lon": -147.26743077520553, "alt_km": 536.4993378854278, "timestamp": "2025-12-24T07:45:06.594173+00:00", "meta": {"OBJECT_NAME": "COSMOS 2251 DEB", "OBJECT_ID": "1993-036ACA", "EPOCH": "2025-12-23T22:26:26.464128", "MEAN_MOTION": 15.06600376, "ECCENTRICITY": 0.00312033, "INCLINATION": 73.9961, "RA_OF_ASC_NODE": 61.8174, "ARG_OF_PERICENTER": 197.4625, "MEAN_ANOMALY": 336.6413, "EPHEMERIS_TYPE": 0, "CLASSIFICATION_TYPE": "U", "NORAD_CAT_ID": 34856, "ELEMENT_SET_NO": 999, "REV_AT_EPOCH": 89280, "BSTAR": 0.0015962376, "MEAN_MOTION_DOT": 0.00023951, "MEAN_MOTION_DDOT": 0}, "tle": {"line1": "1 34856U 93036ACA 25357.93502852  .00023951  00000+0  15962-2 0  9997", "line2": "2 34856  73.9961  61.8174 0031203 197.4625 336.6413 15.06600376892800"}}, "geometry": {"type": "Point", "coordinates": [-147.26743077520553, 58.797956874538094]}}, {"type": "Feature", "properties": {"norad_id": 34857, "name": "COSMOS 2251 DEB", "group": "cosmos-2251-debris", "lat": -44.630637925803846, "lon": 68.29695038800362, "alt_km": 715.3613247435096, "timestamp": "2025-12-24T07:45:06.594183+00:00", "meta": {"OBJECT_NAME": "COSMOS 2251 DEB", "OBJECT_ID": "1993-036ACB", "EPOCH": "2025-12-23T07:32:58.871328", "MEAN_MOTION": 14.58991882, "ECCENTRICITY": 0.00654006, "INCLINATION": 74.0154, "RA_OF_ASC_NODE": 86.6575, "ARG_OF_PERICENTER": 209.1339, "MEAN_ANOMALY": 208.8185, "EPHEMERIS_TYPE": 0, "CLASSIFICATION_TYPE": "U", "NORAD_CAT_ID": 34857, "ELEMENT_SET_NO": 999, "REV_AT_EPOCH": 88055, "BSTAR": 0.0010820228, "MEAN_MOTION_DOT": 5.205e-05, "MEAN_MOTION_DDOT": 0}, "tle": {"line1": "1 34857U 93036ACB 25357.31457027  .00005205  00000+0  10820-2 0  9993", "line2": "2 34857  74.0154  86.6575 0065400 209.1339 208.8185 14.58991882880552"}}, "geometry": {"type": "Point", "coordinates": [68.29695038800362, -44.630637925803846]}}, {"type": "Feature", "properties": {"norad_id": 34859, "name": "COSMOS 2251 DEB", "group": "cosmos-2251-debris", "lat": 67.31316064262388, "lon": 92.28655403398942, "alt_km": 509.3701384136457, "timestamp": "2025-12-24T07:45:06.594193+00:00", "meta": {"OBJECT_NAME": "COSMOS 2251 DEB", "OBJECT_ID": "1993-036ACD", "EPOCH": "2025-12-22T08:26:37.051872", "MEAN_MOTION": 15.16155406, "ECCENTRICITY": 0.00019226, "INCLINATION": 74.0288, "RA_OF_ASC_NODE": 319.6388, "ARG_OF_PERICENTER": 28.7633, "MEAN_ANOMALY": 121.9526, "EPHEMERIS_TYPE": 0, "CLASSIFICATION_TYPE": "U", "NORAD_CAT_ID": 34859, "ELEMENT_SET_NO": 999, "REV_AT_EPOCH": 88504, "BSTAR": 0.0044610477, "MEAN_MOTION_DOT": 0.00087106, "MEAN_MOTION_DDOT": 0}, "tle": {"line1": "1 34859U 93036ACD 25356.35181773  .00087106  00000+0  44610-2 0  9994", "line2": "2 34859  74.0288 319.6388 0001922  28.7633 121.9526 15.16155406885046"}}, "geometry": {"type": "Point", "coordinates": [92.28655403398942, 67.31316064262388]}}, {"type": "Feature", "properties": {"norad_id": 34861, "name": "COSMOS 2251 DEB", "group": "cosmos-2251-debris", "lat": -22.254030245182715, "lon": -146.08818140301767, "alt_km": 567.6340826249279, "timestamp": "2025-12-24T07:45:06.594203+00:00", "meta": {"OBJECT_NAME": "COSMOS 2251 DEB", "OBJECT_ID": "1993-036ACF", "EPOCH": "2025-12-23T20:27:37.747872", "MEAN_MOTION": 15.03229594, "ECCENTRICITY": 0.00082989, "INCLINATION": 74.0174, "RA_OF_ASC_NODE": 28.1383, "ARG_OF_PERICENTER": 17.2491, "MEAN_ANOMALY": 160.8875, "EPHEMERIS_TYPE": 0, "CLASSIFICATION_TYPE": "U", "NORAD_CAT_ID": 34861, "ELEMENT_SET_NO": 999, "REV_AT_EPOCH": 88259, "BSTAR": 0.0024555152, "MEAN_MOTION_DOT": 0.00033393, "MEAN_MOTION_DDOT": 0}, "tle": {"line1": "1 34861U 93036ACF 25357.85252023  .00033393  00000+0  24555-2 0  9995", "line2": "2 34861  74.0174  28.1383 0008298  17.2491 160.8875 15.03229594882590"}}, "geometry": {"type": "Point", "coordinates": [-146.08818140301767, -22.254030245182715]}}, {"type": "Feature", "properties": {"norad_id": 34874, "name": "COSMOS 2251 DEB", "group": "cosmos-2251-debris", "lat": -71.8123465328184, "lon": -66.92313225984962, "alt_km": 813.3152174041015, "timestamp": "2025-12-24T07:45:06.594214+00:00", "meta": {"OBJECT_NAME": "COSMOS 2251 DEB", "OBJECT_ID": "1993-036ACM", "EPOCH": "2025-12-23T21:02:37.180608", "MEAN_MOTION": 14.36359349, "ECCENTRICITY": 0.00505002, "INCLINATION": 74.0393, "RA_OF_ASC_NODE": 53.3117, "ARG_OF_PERICENTER": 74.9465, "MEAN_ANOMALY": 40.0977, "EPHEMERIS_TYPE": 0, "CLASSIFICATION_TYPE": "U", "NORAD_CAT_ID": 34874, "ELEMENT_SET_NO": 999, "REV_AT_EPOCH": 87204, "BSTAR": 0.00079290048, "MEAN_MOTION_DOT": 2.329e-05, "MEAN_MOTION_DDOT": 0}, "tle": {"line1": "1 34874U 93036ACM 25357.87681922  .00002329  00000+0  79290-3 0  9997", "line2": "2 34874  74.0393  53.3117 0050500  74.9465  40.0977 14.36359349872044"}}, "geometry": {"type": "Point", "coordinates": [-66.92313225984962, -71.8123465328184]}}, {"type": "Feature", "properties": {"norad_id": 34875, "name": "COSMOS 2251 DEB", "group": "cosmos-2251-debris", "lat": 57.09003796493995, "lon": -69.72465054192514, "alt_km": 732.0825636087193, "timestamp": "2025-12-24T07:45:06.594224+00:00", "meta": {"OBJECT_NAME": "COSMOS 2251 DEB", "OBJECT_ID": "1993-036ACN", "EPOCH": "2025-12-23T11:37:13.229760", "MEAN_MOTION": 14.48960585, "ECCENTRICITY": 0.00162703, "INCLINATION": 74.0435, "RA_OF_ASC_NODE": 138.0839, "ARG_OF_PERICENTER": 261.11, "MEAN_ANOMALY": 164.4412, "EPHEMERIS_TYPE": 0, "CLASSIFICATION_TYPE": "U", "NORAD_CAT_ID": 34875, "ELEMENT_SET_NO": 999, "REV_AT_EPOCH": 87911, "BSTAR": 0.00043552194, "MEAN_MOTION_DOT": 1.626e-05, "MEAN_MOTION_DDOT": 0}, "tle": {"line1": "1 34875U 93036ACN 25357.48418090  .00001626  00000+0  43552-3 0  9990", "line2": "2 34875  74.0435 138.0839 0016270 261.1100 164.4412 14.48960585879119"}}, "geometry": {"type": "Point", "coordinates": [-69.72465054192514, 57.09003796493995]}}]}